NORAD_CAT_ID,OBJECT_NAME,OBJECT_TYPE,EPOCH,MEAN_MOTION,ECCENTRICITY,INCLINATION,RA_OF_ASC_NODE,ARG_OF_PERICENTER,MEAN_ANOMALY,BSTAR,MEAN_MOTION_DOT,MEAN_MOTION_DDOT,TLE_LINE0,TLE_LINE1,TLE_LINE2,SEMIMAJOR_AXIS,PERIOD,APOGEE,PERIGEE,DECAYED
53700.0,STARLINK-4725,PAYLOAD,2023-04-23 11:45:16,15.08826928,0.000109,53.2161,282.7681,83.541,276.5707,-3.607e-05,-8.62e-06,0.0,0 STARLINK-4725,1 53700U 22107A   23113.48976947 -.00000862  00000-0 -36070-4 0  9999,2 53700  53.2161 282.7681 0001090  83.5410 276.5707 15.08826928 36169,6917.92,95.438,540.539,539.031,0.0
53700.0,STARLINK-4725,PAYLOAD,2023-04-23 13:20:39,15.08828217,0.0001155,53.2167,282.4727,73.0638,287.048,-3.6631e-05,-8.71e-06,0.0,0 STARLINK-4725,1 53700U 22107A   23113.55600971 -.00000871  00000-0 -36631-4 0  9991,2 53700  53.2167 282.4727 0001155  73.0638 287.0480 15.08828217 35427,6917.916,95.438,540.58,538.982,0.0
53700.0,STARLINK-4725,PAYLOAD,2023-04-23 21:17:34,15.08838972,0.0001228,53.2156,280.9861,72.586,287.5266,-6.6139e-05,-1.34e-05,0.0,0 STARLINK-4725,1 53700U 22107A   23113.88720519 -.00001340  00000-0 -66139-4 0  9996,2 53700  53.2156 280.9861 0001228  72.5860 287.5266 15.08838972 36224,6917.884,95.438,540.598,538.899,0.0
53700.0,STARLINK-4725,PAYLOAD,2023-04-24 03:39:06,15.08842209,0.0001149,53.2167,279.7954,84.0153,276.097,-4.0853e-05,-9.38e-06,0.0,0 STARLINK-4725,1 53700U 22107A   23114.15216183 -.00000938  00000-0 -40853-4 0  9991,2 53700  53.2167 279.7954 0001149  84.0153 276.0970 15.08842209 35514,6917.874,95.437,540.534,538.944,0.0
53700.0,STARLINK-4725,PAYLOAD,2023-04-24 11:36:02,15.08838941,7.44e-05,53.2163,278.3082,142.2053,217.8991,6.2942e-05,7.14e-06,0.0,0 STARLINK-4725,1 53700U 22107A   23114.48335671  .00000714  00000-0  62942-4 0  9994,2 53700  53.2163 278.3082 0000744 142.2053 217.8991 15.08838941 36316,6917.884,95.438,540.263,539.234,0.0
53700.0,STARLINK-4725,PAYLOAD,2023-04-25 03:29:56,15.08807086,0.0003151,53.2168,275.3361,90.7552,269.3801,-0.00033714,-5.646e-05,0.0,0 STARLINK-4725,1 53700U 22107A   23115.14579327 -.00005646  00000-0 -33714-3 0  9991,2 53700  53.2168 275.3361 0003151  90.7552 269.3801 15.08807086 35669,6917.981,95.44,542.026,537.666,0.0
53700.0,STARLINK-4725,PAYLOAD,2023-04-25 09:51:29,15.08800944,0.0001807,53.2173,274.1474,101.3264,258.7932,-0.00022325,-3.836e-05,0.0,0 STARLINK-4725,1 53700U 22107A   23115.41075417 -.00003836  00000-0 -22325-3 0  9997,2 53700  53.2173 274.1474 0001807 101.3264 258.7932 15.08800944 36453,6918.0,95.44,541.115,538.615,0.0
53700.0,STARLINK-4725,PAYLOAD,2023-04-26 12:53:00,15.08855331,0.0001568,53.2193,269.092,118.0534,242.0616,-8.0623e-05,-1.571e-05,0.0,0 STARLINK-4725,1 53700U 22107A   23116.53681275 -.00001571  00000-0 -80623-4 0  9996,2 53700  53.2193 269.0920 0001568 118.0534 242.0616 15.08855331 36627,6917.834,95.437,540.783,538.614,0.0
53700.0,STARLINK-4725,PAYLOAD,2023-04-26 19:14:32,15.08859538,0.0001415,53.2175,267.9012,113.6604,246.4537,-4.6654e-05,-1.031e-05,0.0,0 STARLINK-4725,1 53700U 22107A   23116.80176716 -.00001031  00000-0 -46654-4 0  9992,2 53700  53.2175 267.9012 0001415 113.6604 246.4537 15.08859538 36663,6917.821,95.436,540.665,538.707,0.0
53700.0,STARLINK-4725,PAYLOAD,2023-04-27 09:33:01,15.08829485,0.0001451,53.2167,265.2247,108.941,251.1739,0.00035168,5.312e-05,0.0,0 STARLINK-4725,1 53700U 22107A   23117.39793285  .00005312  00000-0  35168-3 0  9994,2 53700  53.2167 265.2247 0001451 108.9410 251.1739 15.08829485 36752,6917.913,95.438,540.781,538.774,0.0
53700.0,STARLINK-4725,PAYLOAD,2023-04-27 19:05:19,15.08834572,0.0001094,53.2165,263.4409,104.6569,255.4545,0.00043433,6.63e-05,0.0,0 STARLINK-4725,1 53700U 22107A   23117.79536750  .00006630  00000-0  43433-3 0  9998,2 53700  53.2165 263.4409 0001094 104.6569 255.4545 15.08834572 36060,6917.897,95.438,540.519,539.005,0.0
53700.0,STARLINK-4725,PAYLOAD,2023-04-28 03:02:16,15.08842758,0.000212,53.2102,261.9547,91.3705,268.753,4.5676e-07,-2.81e-06,0.0,0 STARLINK-4725,1 53700U 22107A   23118.12658421 -.00000281  00000-0  45676-6 0  9997,2 53700  53.2102 261.9547 0002120  91.3705 268.7530 15.08842758 36114,6917.872,95.437,541.204,538.27,0.0
53700.0,STARLINK-4725,PAYLOAD,2023-04-28 12:34:35,15.0884757,0.0001109,53.2167,260.1693,106.2558,253.8556,-9.5441e-05,-1.807e-05,0.0,0 STARLINK-4725,1 53700U 22107A   23118.52401775 -.00001807  00000-0 -95441-4 0  9998,2 53700  53.2167 260.1693 0001109 106.2558 253.8556 15.08847570 36925,6917.857,95.437,540.489,538.955,0.0
53700.0,STARLINK-4725,PAYLOAD,2023-04-28 18:56:07,15.08851838,8.38e-05,53.2167,258.9807,98.2877,261.821,-4.9394e-05,-1.074e-05,0.0,0 STARLINK-4725,1 53700U 22107A   23118.78897177 -.00001074  00000-0 -49394-4 0  9993,2 53700  53.2167 258.9807 0000838  98.2877 261.8210 15.08851838 36219,6917.844,95.437,540.289,539.129,0.0
53700.0,STARLINK-4725,PAYLOAD,2023-04-29 12:25:21,15.08846274,9.04e-05,53.2156,255.7093,94.376,265.7335,-0.00013729,-2.472e-05,0.0,0 STARLINK-4725,1 53700U 22107A   23119.51761431 -.00002472  00000-0 -13729-3 0  9993,2 53700  53.2156 255.7093 0000904  94.3760 265.7335 15.08846274 37075,6917.861,95.437,540.352,539.101,0.0
53700.0,STARLINK-4725,PAYLOAD,2023-04-30 13:51:32,15.08830262,7.51e-05,53.2175,250.9495,86.889,273.2189,-6.155e-06,-3.86e-06,0.0,0 STARLINK-4725,1 53700U 22107A   23120.57745603 -.00000386  00000-0 -61550-5 0  9993,2 53700  53.2175 250.9495 0000751  86.8890 273.2189 15.08830262 36484,6917.91,95.438,540.295,539.256,0.0
53700.0,STARLINK-4725,PAYLOAD,2023-04-30 20:13:03,15.08844763,8.07e-05,53.2161,249.7607,94.0198,266.0886,2.2743e-05,7.4e-07,0.0,0 STARLINK-4725,1 53700U 22107A   23120.84240607  .00000074  00000-0  22743-4 0  9999,2 53700  53.2161 249.7607 0000807  94.0198 266.0886 15.08844763 36524,6917.866,95.437,540.289,539.173,0.0
53700.0,STARLINK-4725,PAYLOAD,2023-05-01 13:42:19,15.08833819,9.37e-05,53.2165,246.4889,101.9103,258.1994,-3.5319e-05,-8.5e-06,0.0,0 STARLINK-4725,1 53700U 22107A   23121.57105731 -.00000850  00000-0 -35319-4 0  9995,2 53700  53.2165 246.4889 0000937 101.9103 258.1994 15.08833819 37389,6917.899,95.438,540.412,539.116,0.0
53700.0,STARLINK-4725,PAYLOAD,2023-05-01 15:17:42,15.08838597,9.01e-05,53.2172,246.1907,98.3457,261.7637,-4.9846e-05,-1.081e-05,0.0,0 STARLINK-4725,1 53700U 22107A   23121.63729477 -.00001081  00000-0 -49846-4 0  9998,2 53700  53.2172 246.1907 0000901  98.3457 261.7637 15.08838597 36647,6917.885,95.438,540.373,539.126,0.0
53700.0,STARLINK-4725,PAYLOAD,2023-05-02 13:33:05,15.08844719,9.88e-05,53.217,242.0267,118.4576,241.6515,3.4036e-05,2.54e-06,0.0,0 STARLINK-4725,1 53700U 22107A   23122.56464742  .00000254  00000-0  34036-4 0  9996,2 53700  53.2170 242.0267 0000988 118.4576 241.6515 15.08844719 36780,6917.866,95.437,540.414,539.047,0.0
53700.0,STARLINK-4725,PAYLOAD,2023-05-02 18:19:14,15.08850367,8.49e-05,53.217,241.1373,104.4312,255.6774,8.4549e-05,1.059e-05,0.0,0 STARLINK-4725,1 53700U 22107A   23122.76336181  .00001059  00000-0  84549-4 0  9991,2 53700  53.2170 241.1373 0000849 104.4312 255.6774 15.08850367 37562,6917.849,95.437,540.301,539.126,0.0
53700.0,STARLINK-4725,PAYLOAD,2023-05-03 00:40:48,15.08830246,0.0001219,53.2171,239.9405,106.0503,254.0624,-3.4723e-05,-8.4e-06,0.0,0 STARLINK-4725,1 53700U 22107A   23123.02833812 -.00000840  00000-0 -34723-4 0  9992,2 53700  53.2171 239.9405 0001219 106.0503 254.0624 15.08830246 36858,6917.91,95.438,540.618,538.932,0.0
53700.0,STARLINK-4725,PAYLOAD,2023-05-03 13:23:53,15.08830293,8.66e-05,53.2167,237.569,113.3571,246.7512,-4.482e-05,-1.001e-05,0.0,0 STARLINK-4725,1 53700U 22107A   23123.55826138 -.00001001  00000-0 -44820-4 0  9992,2 53700  53.2167 237.5690 0000866 113.3571 246.7512 15.08830293 37684,6917.91,95.438,540.374,539.176,0.0
53700.0,STARLINK-4725,PAYLOAD,2023-05-03 18:10:02,15.08837529,9.09e-05,53.2175,236.6783,105.6169,254.4924,1.0328e-05,-1.23e-06,0.0,0 STARLINK-4725,1 53700U 22107A   23123.75697623 -.00000123  00000-0  10328-4 0  9998,2 53700  53.2175 236.6783 0000909 105.6169 254.4924 15.08837529 36963,6917.888,95.438,540.382,539.124,0.0
53700.0,STARLINK-4725,PAYLOAD,2023-05-03 19:45:25,15.08838308,9.27e-05,53.2173,236.3771,92.6043,267.5055,7.4804e-06,-1.69e-06,0.0,0 STARLINK-4725,1 53700U 22107A   23123.82321589 -.00000169  00000-0  74804-5 0  9991,2 53700  53.2173 236.3771 0000927  92.6043 267.5055 15.08838308 37722,6917.886,95.438,540.392,539.109,0.0
53700.0,STARLINK-4725,PAYLOAD,2023-05-04 13:14:40,15.08841052,7.76e-05,53.2157,233.107,88.6278,271.4803,-0.00010547,-1.966e-05,0.0,0 STARLINK-4725,1 53700U 22107A   23124.55185996 -.00001966  00000-0 -10547-3 0  9991,2 53700  53.2157 233.1070 0000776  88.6278 271.4803 15.08841052 37835,6917.877,95.437,540.279,539.205,0.0
53700.0,STARLINK-4725,PAYLOAD,2023-05-04 16:25:26,15.08843753,7.75e-05,53.2163,232.5129,88.3505,271.7576,-7.5717e-05,-1.493e-05,0.0,0 STARLINK-4725,1 53700U 22107A   23124.68433708 -.00001493  00000-0 -75717-4 0  9998,2 53700  53.2163 232.5129 0000775  88.3505 271.7576 15.08843753 37851,6917.869,95.437,540.27,539.198,0.0
53700.0,STARLINK-4725,PAYLOAD,2023-05-05 00:22:22,15.08841001,8.13e-05,53.2162,231.0264,85.9447,274.1638,-9.2226e-05,-1.755e-05,0.0,0 STARLINK-4725,1 53700U 22107A   23125.01553922 -.00001755  00000-0 -92226-4 0  9992,2 53700  53.2162 231.0264 0000813  85.9447 274.1638 15.08841001 37158,6917.877,95.437,540.305,539.18,0.0
53700.0,STARLINK-4725,PAYLOAD,2023-05-05 06:43:55,15.08827979,8.34e-05,53.2157,229.8375,90.0207,270.088,3.2988e-05,2.37e-06,0.0,0 STARLINK-4725,1 53700U 22107A   23125.28050454  .00000237  00000-0  32988-4 0  9994,2 53700  53.2157 229.8375 0000834  90.0207 270.0880 15.08827979 37190,6917.917,95.438,540.359,539.205,0.0
53700.0,STARLINK-4725,PAYLOAD,2023-05-05 16:16:14,15.08839081,8e-05,53.2165,228.0548,92.9409,267.1674,2.7898e-05,1.56e-06,0.0,0 STARLINK-4725,1 53700U 22107A   23125.67793996  .00000156  00000-0  27898-4 0  9996,2 53700  53.2165 228.0548 0000800  92.9409 267.1674 15.08839081 37252,6917.883,95.438,540.302,539.195,0.0
